[{"OBJECT_NAME":"STARLINK-31630","OBJECT_ID":"2024-050T","EPOCH":"2026-03-09T13:39:04.940352","MEAN_MOTION":15.30200807,"ECCENTRICITY":0.0001409,"INCLINATION":53.16,"RA_OF_ASC_NODE":168.5079,"ARG_OF_PERICENTER":92.3163,"MEAN_ANOMALY":267.7999,"EPHEMERIS_TYPE":0,"CLASSIFICATION_TYPE":"U","NORAD_CAT_ID":59271,"ELEMENT_SET_NO":999,"REV_AT_EPOCH":11071,"BSTAR":-5.7526e-5,"MEAN_MOTION_DOT":-2.063e-5,"MEAN_MOTION_DDOT":0},{"OBJECT_NAME":"STARLINK-35622","OBJECT_ID":"2025-236T","EPOCH":"2026-03-09T11:54:58.350816","MEAN_MOTION":15.30199382,"ECCENTRICITY":0.00012826,"INCLINATION":53.1592,"RA_OF_ASC_NODE":104.8678,"ARG_OF_PERICENTER":57.9263,"MEAN_ANOMALY":302.1862,"EPHEMERIS_TYPE":0,"CLASSIFICATION_TYPE":"U","NORAD_CAT_ID":66103,"ELEMENT_SET_NO":999,"REV_AT_EPOCH":2291,"BSTAR":0.0010900218,"MEAN_MOTION_DOT":0.00032063,"MEAN_MOTION_DDOT":0}]
