STARLINK-31630          
1 59271U 24050T   26068.56880718 -.00002063  00000+0 -57526-4 0  9991
2 59271  53.1600 168.5079 0001409  92.3163 267.7999 15.30200807110710
STARLINK-35622          
1 66103U 25236T   26068.49650869  .00032063  00000+0  10900-2 0  9998
2 66103  53.1592 104.8678 0001282  57.9263 302.1862 15.30199382 22919
